NORAD_CAT_ID,OBJECT_NAME,OBJECT_TYPE,EPOCH,MEAN_MOTION,ECCENTRICITY,INCLINATION,RA_OF_ASC_NODE,ARG_OF_PERICENTER,MEAN_ANOMALY,BSTAR,MEAN_MOTION_DOT,MEAN_MOTION_DDOT,TLE_LINE0,TLE_LINE1,TLE_LINE2,SEMIMAJOR_AXIS,PERIOD,APOGEE,PERIGEE,DECAYED
52648.0,STARLINK-3854,PAYLOAD,2022-05-20 16:00:00,15.80767136,0.0001057,53.2167,50.8291,82.875,327.017,-0.004257,-0.00766343,0.0,0 STARLINK-3854,1 52648U 22052BC  22140.66667824 -.00766343  00000-0 -42570-2 0  9991,2 52648  53.2167  50.8291 0001057  82.8750 327.0170 15.80767136  1307,6706.406999999997,91.095,328.981,327.563,0.0
52648.0,STARLINK-3854,PAYLOAD,2022-05-21 20:00:01,15.78647541,0.0001203,53.2178,44.9995,95.02,113.5939,-0.0054348,-0.00876103,0.0,0 STARLINK-3854,1 52648U 22052BC  22141.83334491 -.00876103  00000-0 -54348-2 0  9994,2 52648  53.2178  44.9995 0001203  95.0200 113.5939 15.78647541  1487,6712.409000000002,91.217,335.081,333.466,0.0
52648.0,STARLINK-3854,PAYLOAD,2022-05-21 22:00:00,15.78490877,0.0001053,53.2176,44.5845,96.6413,225.815,-0.0054835,-0.00877478,0.0,0 STARLINK-3854,1 52648U 22052BC  22141.91667824 -.00877478  00000-0 -54835-2 0  9999,2 52648  53.2176  44.5845 0001053  96.6413 225.8150 15.78490877  1302,6712.853,91.226,335.425,334.011,0.0
52648.0,STARLINK-3854,PAYLOAD,2022-05-22 14:00:01,15.77230805,0.0001107,53.2171,41.2612,98.6854,52.8138,-0.0057829,-0.00874519,0.0,0 STARLINK-3854,1 52648U 22052BC  22142.58334491 -.00874519  00000-0 -57829-2 0  9993,2 52648  53.2171  41.2612 0001107  98.6854  52.8138 15.77230805  1300,6716.428000000001,91.299,339.036,337.5490000000001,0.0
52648.0,STARLINK-3854,PAYLOAD,2022-05-22 20:00:01,15.76759542,0.0001118,53.2174,40.0179,90.6626,40.9467,-0.0059141,-0.00875571,0.0,0 STARLINK-3854,1 52648U 22052BC  22142.83334491 -.00875571  00000-0 -59141-2 0  9999,2 52648  53.2174  40.0179 0001118  90.6626  40.9467 15.76759542  1642,6717.766,91.327,340.38199999999995,338.88,0.0
52648.0,STARLINK-3854,PAYLOAD,2022-05-22 22:00:01,15.76600524,0.0001186,53.2174,39.604,96.1465,148.8045,-0.0059372,-0.0087306,0.0,0 STARLINK-3854,1 52648U 22052BC  22142.91668981 -.00873060  00000-0 -59372-2 0  9999,2 52648  53.2174  39.6040 0001186  96.1465 148.8045 15.76600524  1308,6718.218000000003,91.336,340.879,339.286,0.0
52648.0,STARLINK-3854,PAYLOAD,2022-05-23 14:00:01,15.75342455,0.0001071,53.2173,36.2898,116.1536,313.237,-0.0062856,-0.0087399,0.0,0 STARLINK-3854,1 52648U 22052BC  22143.58334491 -.00873990  00000-0 -62856-2 0  9992,2 52648  53.2173  36.2898 0001071 116.1536 313.2370 15.75342455  1300,6721.794,91.409,344.379,342.939,0.0
52648.0,STARLINK-3854,PAYLOAD,2022-05-23 20:00:01,15.74872514,0.0001005,53.2177,35.0503,101.4892,306.3091,-0.0064367,-0.00876407,0.0,0 STARLINK-3854,1 52648U 22052BC  22143.83334491 -.00876407  00000-0 -64367-2 0  9995,2 52648  53.2177  35.0503 0001005 101.4892 306.3091 15.74872514  1804,6723.130999999999,91.436,345.672,344.32,0.0
52648.0,STARLINK-3854,PAYLOAD,2022-05-23 22:00:01,15.74712189,0.0001175,53.2175,34.6373,95.2375,65.336,-0.0064445,-0.00871861,0.0,0 STARLINK-3854,1 52648U 22052BC  22143.91668981 -.00871861  00000-0 -64445-2 0  9994,2 52648  53.2175  34.6373 0001175  95.2375  65.3360 15.74712189  1303,6723.587,91.445,346.242,344.662,0.0
52648.0,STARLINK-3854,PAYLOAD,2022-05-24 12:00:00,15.73437542,0.0001211,53.2174,31.7452,105.9399,122.234,-0.0024746,-0.00337757,0.0,0 STARLINK-3854,1 52648U 22052BC  22144.50001157 -.00337757  00000-0 -24746-2 0  9997,2 52648  53.2174  31.7452 0001211 105.9399 122.2340 15.73437542  1907,6727.218000000003,91.519,349.898,348.26800000000014,0.0
52648.0,STARLINK-3854,PAYLOAD,2022-05-24 14:00:01,15.73277886,0.0001256,53.2172,31.3324,114.887,225.6118,-0.00083619,-0.00116746,0.0,0 STARLINK-3854,1 52648U 22052BC  22144.58334491 -.00116746  00000-0 -83619-3 0  9993,2 52648  53.2172  31.3324 0001256 114.8870 225.6118 15.73277886  1309,6727.6730000000025,91.529,350.3830000000001,348.6930000000001,0.0
52648.0,STARLINK-3854,PAYLOAD,2022-05-24 20:00:01,15.73167123,0.000113,53.2169,30.0962,110.6872,206.631,0.00042977,0.00060042,0.0,0 STARLINK-3854,1 52648U 22052BC  22144.83335648  .00060042  00000-0  42977-3 0  9993,2 52648  53.2169  30.0962 0001130 110.6872 206.6310 15.73167123  1952,6727.989000000001,91.535,350.61400000000015,349.094,0.0
52648.0,STARLINK-3854,PAYLOAD,2022-05-24 22:00:00,15.73208297,0.0001173,53.2171,29.6845,104.6994,324.7667,-4.5802e-05,-7.044e-05,0.0,0 STARLINK-3854,1 52648U 22052BC  22144.91667824 -.00007044  00000-0 -45802-4 0  9992,2 52648  53.2171  29.6845 0001173 104.6994 324.7667 15.73208297  1308,6727.871999999999,91.533,350.526,348.94699999999995,0.0
52648.0,STARLINK-3854,PAYLOAD,2022-05-25 04:00:00,15.73274398,0.0001114,53.214,28.4508,110.7675,295.5569,-5.5903e-05,-8.483e-05,0.0,0 STARLINK-3854,1 52648U 22052BC  22145.16667824 -.00008483  00000-0 -55903-4 0  9991,2 52648  53.2140  28.4508 0001114 110.7675 295.5569 15.73274398  2016,6727.683000000001,91.529,350.298,348.7990000000001,0.0
52648.0,STARLINK-3854,PAYLOAD,2022-05-25 12:00:00,15.73248934,0.0001207,53.2145,26.799,122.095,13.2387,-0.00073856,-0.00103224,0.0,0 STARLINK-3854,1 52648U 22052BC  22145.50001157 -.00103224  00000-0 -73856-3 0  9995,2 52648  53.2145  26.7990 0001207 122.0950  13.2387 15.73248934  2067,6727.755999999999,91.53,350.43300000000005,348.809,0.0
52648.0,STARLINK-3854,PAYLOAD,2022-05-25 14:00:01,15.73220077,0.0001262,53.2144,26.3862,122.3774,125.2055,-0.00059292,-0.00083086,0.0,0 STARLINK-3854,1 52648U 22052BC  22145.58334491 -.00083086  00000-0 -59292-3 0  9994,2 52648  53.2144  26.3862 0001262 122.3774 125.2055 15.73220077  1308,6727.8380000000025,91.532,350.552,348.85400000000016,0.0
52648.0,STARLINK-3854,PAYLOAD,2022-05-25 20:00:01,15.73167786,0.0001248,53.2147,25.1504,116.2389,108.0565,6.868899999999999e-05,9.017e-05,0.0,0 STARLINK-3854,1 52648U 22052BC  22145.83334491  .00009017  00000-0  68689-4 0  9993,2 52648  53.2147  25.1504 0001248 116.2389 108.0565 15.73167786  2111,6727.986999999999,91.535,350.69199999999995,349.01199999999994,0.0
52648.0,STARLINK-3854,PAYLOAD,2022-05-25 20:34:31,15.73296812,8.65e-05,53.2152,25.0308,146.5592,213.5483,0.00044401,0.00062417,0.0,0 STARLINK-3854,1 52648U 22052BC  22145.85731098  .00062417  00000-0  44401-3 0  9997,2 52648  53.2152  25.0308 0000865 146.5592 213.5483 15.73296812  1746,6727.619000000002,91.528,350.066,348.902,0.0
52648.0,STARLINK-3854,PAYLOAD,2022-05-26 08:46:23,15.73190978,0.0001139,53.215,22.5162,125.475,234.6376,0.00032251,0.00044866,0.0,0 STARLINK-3854,1 52648U 22052BC  22146.36554558  .00044866  00000-0  32251-3 0  9996,2 52648  53.2150  22.5162 0001139 125.4750 234.6376 15.73190978  1821,6727.920999999999,91.534,350.552,349.02,0.0
52648.0,STARLINK-3854,PAYLOAD,2022-05-26 20:00:01,15.73230831,0.0001034,53.2142,20.2022,127.6402,3.3911,-0.00026115,-0.00037156,0.0,0 STARLINK-3854,1 52648U 22052BC  22146.83334491 -.00037156  00000-0 -26115-3 0  9998,2 52648  53.2142  20.2022 0001034 127.6402   3.3911 15.73230831  2273,6727.807,91.531,350.36800000000005,348.977,0.0
52648.0,STARLINK-3854,PAYLOAD,2022-05-26 22:29:42,15.73224994,0.0001262,53.2156,19.6854,114.2694,245.8458,0.00021806,0.00030126,0.0,0 STARLINK-3854,1 52648U 22052BC  22146.93729635  .00030126  00000-0  21806-3 0  9997,2 52648  53.2156  19.6854 0001262 114.2694 245.8458 15.73224994  1913,6727.824000000001,91.532,350.538,348.84,0.0
52648.0,STARLINK-3854,PAYLOAD,2022-05-27 12:00:00,15.73207086,0.0001183,53.2144,16.9017,125.4093,183.5003,-8.5281e-05,-0.00012574,0.0,0 STARLINK-3854,1 52648U 22052BC  22147.50001157 -.00012574  00000-0 -85281-4 0  9990,2 52648  53.2144  16.9017 0001183 125.4093 183.5003 15.73207086  2378,6727.875,91.533,350.536,348.944,0.0
52648.0,STARLINK-3854,PAYLOAD,2022-05-27 14:00:01,15.73212233,0.0001254,53.2146,16.4891,124.1967,296.9457,-0.00019737,-0.00028241,0.0,0 STARLINK-3854,1 52648U 22052BC  22147.58334491 -.00028241  00000-0 -19737-3 0  9998,2 52648  53.2146  16.4891 0001254 124.1967 296.9457 15.73212233  1304,6727.86,91.532,350.569,348.88199999999995,0.0
52648.0,STARLINK-3854,PAYLOAD,2022-05-27 19:50:25,15.73224935,8.240000000000001e-05,53.2147,15.2845,112.9022,247.2085,0.00010413,0.00014034,0.0,0 STARLINK-3854,1 52648U 22052BC  22147.82668209  .00014034  00000-0  10413-3 0  9997,2 52648  53.2147  15.2845 0000824 112.9022 247.2085 15.73224935  2422,6727.824000000001,91.532,350.24300000000005,349.135,0.0
52648.0,STARLINK-3854,PAYLOAD,2022-05-27 21:21:54,15.73209793,0.0001441999999999,53.215,14.9709,116.7569,243.3599,3.3191e-05,4.042e-05,0.0,0 STARLINK-3854,1 52648U 22052BC  22147.89021378  .00004042  00000-0  33191-4 0  9991,2 52648  53.2150  14.9709 0001442 116.7569 243.3599 15.73209793  2068,6727.8669999999975,91.533,350.702,348.76199999999994,0.0
52648.0,STARLINK-3854,PAYLOAD,2022-05-28 04:00:00,15.72774159,0.0001027,53.2162,13.6019,128.8647,357.9739,0.0043087,0.00640921,0.0,0 STARLINK-3854,1 52648U 22052BC  22148.16667824  .00640921  00000-0  43087-2 0  9999,2 52648  53.2162  13.6019 0001027 128.8647 357.9739 15.72774159  2487,6729.11,91.558,351.666,350.283,0.0
52648.0,STARLINK-3854,PAYLOAD,2022-05-28 12:00:00,15.732138699999998,0.0001085,53.2138,11.9529,130.5843,85.1388,5.1297e-05,6.589e-05,0.0,0 STARLINK-3854,1 52648U 22052BC  22148.50001157  .00006589  00000-0  51297-4 0  9998,2 52648  53.2138  11.9529 0001085 130.5843  85.1388 15.73213870  2534,6727.856,91.532,350.451,348.991,0.0
52648.0,STARLINK-3854,PAYLOAD,2022-05-28 14:00:01,15.73209232,0.0001173,53.214,11.5404,129.1887,198.7737,0.00014241,0.0001942,0.0,0 STARLINK-3854,1 52648U 22052BC  22148.58334491  .00019420  00000-0  14241-3 0  9991,2 52648  53.2140  11.5404 0001173 129.1887 198.7737 15.73209232  1305,6727.869000000002,91.533,350.523,348.945,0.0
52648.0,STARLINK-3854,PAYLOAD,2022-05-28 20:00:01,15.73233496,0.0001117,53.2139,10.3049,119.7843,184.9617,0.00019964,0.0002753,0.0,0 STARLINK-3854,1 52648U 22052BC  22148.83335648  .00027530  00000-0  19964-3 0  9992,2 52648  53.2139  10.3049 0001117 119.7843 184.9617 15.73233496  2584,6727.8,91.531,350.416,348.913,0.0
